STARLINK-36102          
1 66849U 25281B   25344.66668981 -.00966596  29334-3 -23618-2 0  9998
2 66849  43.0015 135.3060 0001605 279.0783 208.0732 15.95247309  2463
STARLINK-36105          
1 66850U 25281C   25344.66668981 -.00967539  29414-3 -23522-2 0  9991
2 66850  43.0013 135.3001 0001563 273.8690 215.7585 15.95340432  2462
STARLINK-36094          
1 66851U 25281D   25344.66668981 -.00981359  30208-3 -23763-2 0  9998
2 66851  43.0013 135.2954 0001667 281.4235 210.0940 15.95416525  2464
STARLINK-35992          
1 66852U 25281E   25344.66668981 -.00996651  31096-3 -24039-2 0  9993
2 66852  43.0015 135.2908 0001624 275.4518 217.8803 15.95490858  2460
STARLINK-35986          
1 66853U 25281F   25344.66668981 -.01038402  33553-3 -24896-2 0  9997
2 66853  43.0015 135.2841 0001635 275.5982 220.3793 15.95608593  2469
STARLINK-36087          
1 66854U 25281G   25344.66668981 -.01085412  36419-3 -25875-2 0  9993
2 66854  43.0014 135.2774 0001626 269.4535 229.0445 15.95721326  2460
STARLINK-36090          
1 66855U 25281H   25344.66668981 -.01121625  38703-3 -26621-2 0  9999
2 66855  43.0015 135.2723 0001596 269.5680 230.9611 15.95808262  2465
STARLINK-36072          
1 66856U 25281J   25344.66668981 -.01158350  41088-3 -27361-2 0  9997
2 66856  43.0014 135.2663 0001643 276.2049 226.6934 15.95902482  2464
STARLINK-36083          
1 66857U 25281K   25344.66668981 -.01181694  42646-3 -27806-2 0  9990
2 66857  43.0014 135.2616 0001655 277.0441 227.7970 15.95976314  2468
STARLINK-35118          
1 66858U 25281L   25344.66668981 -.01195394  43585-3 -28024-2 0  9999
2 66858  43.0016 135.2559 0001625 274.4321 232.4648 15.96046904  2461
STARLINK-35646          
1 66859U 25281M   25344.66668981 -.01210178  44611-3 -28252-2 0  9992
2 66859  43.0016 135.2504 0001681 276.3454 232.8564 15.96125298  2467
STARLINK-35987          
1 66860U 25281N   25344.66668981 -.01236658  46593-3 -28282-2 0  9999
2 66860  43.0016 135.2202 0001581 268.6575 252.4584 15.96505755  2461
