CCSDS_OMM_VERS = 2.0
CREATION_DATE  = 
ORIGINATOR     = 

OBJECT_NAME    = STARLINK-36102
OBJECT_ID      = 2025-281B
CENTER_NAME    = EARTH
REF_FRAME      = TEME
TIME_SYSTEM    = UTC
MEAN_ELEMENT_THEORY = SGP/SGP4

EPOCH          = 2025-12-10T16:00:01.999584
MEAN_MOTION    = 15.95247309
ECCENTRICITY   = .0001605
INCLINATION    = 43.0015
RA_OF_ASC_NODE = 135.3060
ARG_OF_PERICENTER = 279.0783
MEAN_ANOMALY   = 208.0732

EPHEMERIS_TYPE = 0
CLASSIFICATION_TYPE = U
NORAD_CAT_ID   = 66849
ELEMENT_SET_NO = 999
REV_AT_EPOCH   = 246
BSTAR          = -.2361761E-2
MEAN_MOTION_DOT = -.966596E-2
MEAN_MOTION_DDOT = .29334398E-3

CCSDS_OMM_VERS = 2.0
CREATION_DATE  = 
ORIGINATOR     = 

OBJECT_NAME    = STARLINK-36105
OBJECT_ID      = 2025-281C
CENTER_NAME    = EARTH
REF_FRAME      = TEME
TIME_SYSTEM    = UTC
MEAN_ELEMENT_THEORY = SGP/SGP4

EPOCH          = 2025-12-10T16:00:01.999584
MEAN_MOTION    = 15.95340432
ECCENTRICITY   = .00015636
INCLINATION    = 43.0013
RA_OF_ASC_NODE = 135.3001
ARG_OF_PERICENTER = 273.8690
MEAN_ANOMALY   = 215.7585

EPHEMERIS_TYPE = 0
CLASSIFICATION_TYPE = U
NORAD_CAT_ID   = 66850
ELEMENT_SET_NO = 999
REV_AT_EPOCH   = 246
BSTAR          = -.23522064E-2
MEAN_MOTION_DOT = -.967539E-2
MEAN_MOTION_DDOT = .29414388E-3

CCSDS_OMM_VERS = 2.0
CREATION_DATE  = 
ORIGINATOR     = 

OBJECT_NAME    = STARLINK-36094
OBJECT_ID      = 2025-281D
CENTER_NAME    = EARTH
REF_FRAME      = TEME
TIME_SYSTEM    = UTC
MEAN_ELEMENT_THEORY = SGP/SGP4

EPOCH          = 2025-12-10T16:00:01.999584
MEAN_MOTION    = 15.95416525
ECCENTRICITY   = .00016672
INCLINATION    = 43.0013
RA_OF_ASC_NODE = 135.2954
ARG_OF_PERICENTER = 281.4235
MEAN_ANOMALY   = 210.0940

EPHEMERIS_TYPE = 0
CLASSIFICATION_TYPE = U
NORAD_CAT_ID   = 66851
ELEMENT_SET_NO = 999
REV_AT_EPOCH   = 246
BSTAR          = -.23762503E-2
MEAN_MOTION_DOT = -.981359E-2
MEAN_MOTION_DDOT = .30208182E-3

CCSDS_OMM_VERS = 2.0
CREATION_DATE  = 
ORIGINATOR     = 

OBJECT_NAME    = STARLINK-35992
OBJECT_ID      = 2025-281E
CENTER_NAME    = EARTH
REF_FRAME      = TEME
TIME_SYSTEM    = UTC
MEAN_ELEMENT_THEORY = SGP/SGP4

EPOCH          = 2025-12-10T16:00:01.999584
MEAN_MOTION    = 15.95490858
ECCENTRICITY   = .00016244
INCLINATION    = 43.0015
RA_OF_ASC_NODE = 135.2908
ARG_OF_PERICENTER = 275.4518
MEAN_ANOMALY   = 217.8803

EPHEMERIS_TYPE = 0
CLASSIFICATION_TYPE = U
NORAD_CAT_ID   = 66852
ELEMENT_SET_NO = 999
REV_AT_EPOCH   = 246
BSTAR          = -.24039217E-2
MEAN_MOTION_DOT = -.996651E-2
MEAN_MOTION_DDOT = .31095622E-3

CCSDS_OMM_VERS = 2.0
CREATION_DATE  = 
ORIGINATOR     = 

OBJECT_NAME    = STARLINK-35986
OBJECT_ID      = 2025-281F
CENTER_NAME    = EARTH
REF_FRAME      = TEME
TIME_SYSTEM    = UTC
MEAN_ELEMENT_THEORY = SGP/SGP4

EPOCH          = 2025-12-10T16:00:01.999584
MEAN_MOTION    = 15.95608593
ECCENTRICITY   = .00016358
INCLINATION    = 43.0015
RA_OF_ASC_NODE = 135.2841
ARG_OF_PERICENTER = 275.5982
MEAN_ANOMALY   = 220.3793

EPHEMERIS_TYPE = 0
CLASSIFICATION_TYPE = U
NORAD_CAT_ID   = 66853
ELEMENT_SET_NO = 999
REV_AT_EPOCH   = 246
BSTAR          = -.24896148E-2
MEAN_MOTION_DOT = -.1038402E-1
MEAN_MOTION_DDOT = .33553081E-3

CCSDS_OMM_VERS = 2.0
CREATION_DATE  = 
ORIGINATOR     = 

OBJECT_NAME    = STARLINK-36087
OBJECT_ID      = 2025-281G
CENTER_NAME    = EARTH
REF_FRAME      = TEME
TIME_SYSTEM    = UTC
MEAN_ELEMENT_THEORY = SGP/SGP4

EPOCH          = 2025-12-10T16:00:01.999584
MEAN_MOTION    = 15.95721326
ECCENTRICITY   = .00016261
INCLINATION    = 43.0014
RA_OF_ASC_NODE = 135.2774
ARG_OF_PERICENTER = 269.4535
MEAN_ANOMALY   = 229.0445

EPHEMERIS_TYPE = 0
CLASSIFICATION_TYPE = U
NORAD_CAT_ID   = 66854
ELEMENT_SET_NO = 999
REV_AT_EPOCH   = 246
BSTAR          = -.25875366E-2
MEAN_MOTION_DOT = -.1085412E-1
MEAN_MOTION_DDOT = .3641912E-3

CCSDS_OMM_VERS = 2.0
CREATION_DATE  = 
ORIGINATOR     = 

OBJECT_NAME    = STARLINK-36090
OBJECT_ID      = 2025-281H
CENTER_NAME    = EARTH
REF_FRAME      = TEME
TIME_SYSTEM    = UTC
MEAN_ELEMENT_THEORY = SGP/SGP4

EPOCH          = 2025-12-10T16:00:01.999584
MEAN_MOTION    = 15.95808262
ECCENTRICITY   = .00015962
INCLINATION    = 43.0015
RA_OF_ASC_NODE = 135.2723
ARG_OF_PERICENTER = 269.5680
MEAN_ANOMALY   = 230.9611

EPHEMERIS_TYPE = 0
CLASSIFICATION_TYPE = U
NORAD_CAT_ID   = 66855
ELEMENT_SET_NO = 999
REV_AT_EPOCH   = 246
BSTAR          = -.26621288E-2
MEAN_MOTION_DOT = -.1121625E-1
MEAN_MOTION_DDOT = .38702579E-3

CCSDS_OMM_VERS = 2.0
CREATION_DATE  = 
ORIGINATOR     = 

OBJECT_NAME    = STARLINK-36072
OBJECT_ID      = 2025-281J
CENTER_NAME    = EARTH
REF_FRAME      = TEME
TIME_SYSTEM    = UTC
MEAN_ELEMENT_THEORY = SGP/SGP4

EPOCH          = 2025-12-10T16:00:01.999584
MEAN_MOTION    = 15.95902482
ECCENTRICITY   = .00016438
INCLINATION    = 43.0014
RA_OF_ASC_NODE = 135.2663
ARG_OF_PERICENTER = 276.2049
MEAN_ANOMALY   = 226.6934

EPHEMERIS_TYPE = 0
CLASSIFICATION_TYPE = U
NORAD_CAT_ID   = 66856
ELEMENT_SET_NO = 999
REV_AT_EPOCH   = 246
BSTAR          = -.27360976E-2
MEAN_MOTION_DOT = -.115835E-1
MEAN_MOTION_DDOT = .41087948E-3

CCSDS_OMM_VERS = 2.0
CREATION_DATE  = 
ORIGINATOR     = 

OBJECT_NAME    = STARLINK-36083
OBJECT_ID      = 2025-281K
CENTER_NAME    = EARTH
REF_FRAME      = TEME
TIME_SYSTEM    = UTC
MEAN_ELEMENT_THEORY = SGP/SGP4

EPOCH          = 2025-12-10T16:00:01.999584
MEAN_MOTION    = 15.95976314
ECCENTRICITY   = .00016557
INCLINATION    = 43.0014
RA_OF_ASC_NODE = 135.2616
ARG_OF_PERICENTER = 277.0441
MEAN_ANOMALY   = 227.7970

EPHEMERIS_TYPE = 0
CLASSIFICATION_TYPE = U
NORAD_CAT_ID   = 66857
ELEMENT_SET_NO = 999
REV_AT_EPOCH   = 246
BSTAR          = -.27805964E-2
MEAN_MOTION_DOT = -.1181694E-1
MEAN_MOTION_DDOT = .42645657E-3

CCSDS_OMM_VERS = 2.0
CREATION_DATE  = 
ORIGINATOR     = 

OBJECT_NAME    = STARLINK-35118
OBJECT_ID      = 2025-281L
CENTER_NAME    = EARTH
REF_FRAME      = TEME
TIME_SYSTEM    = UTC
MEAN_ELEMENT_THEORY = SGP/SGP4

EPOCH          = 2025-12-10T16:00:01.999584
MEAN_MOTION    = 15.96046904
ECCENTRICITY   = .00016257
INCLINATION    = 43.0016
RA_OF_ASC_NODE = 135.2559
ARG_OF_PERICENTER = 274.4321
MEAN_ANOMALY   = 232.4648

EPHEMERIS_TYPE = 0
CLASSIFICATION_TYPE = U
NORAD_CAT_ID   = 66858
ELEMENT_SET_NO = 999
REV_AT_EPOCH   = 246
BSTAR          = -.2802372E-2
MEAN_MOTION_DOT = -.1195394E-1
MEAN_MOTION_DDOT = .43584987E-3

CCSDS_OMM_VERS = 2.0
CREATION_DATE  = 
ORIGINATOR     = 

OBJECT_NAME    = STARLINK-35646
OBJECT_ID      = 2025-281M
CENTER_NAME    = EARTH
REF_FRAME      = TEME
TIME_SYSTEM    = UTC
MEAN_ELEMENT_THEORY = SGP/SGP4

EPOCH          = 2025-12-10T16:00:01.999584
MEAN_MOTION    = 15.96125298
ECCENTRICITY   = .00016815
INCLINATION    = 43.0016
RA_OF_ASC_NODE = 135.2504
ARG_OF_PERICENTER = 276.3454
MEAN_ANOMALY   = 232.8564

EPHEMERIS_TYPE = 0
CLASSIFICATION_TYPE = U
NORAD_CAT_ID   = 66859
ELEMENT_SET_NO = 999
REV_AT_EPOCH   = 246
BSTAR          = -.28252473E-2
MEAN_MOTION_DOT = -.1210178E-1
MEAN_MOTION_DDOT = .44610917E-3

CCSDS_OMM_VERS = 2.0
CREATION_DATE  = 
ORIGINATOR     = 

OBJECT_NAME    = STARLINK-35987
OBJECT_ID      = 2025-281N
CENTER_NAME    = EARTH
REF_FRAME      = TEME
TIME_SYSTEM    = UTC
MEAN_ELEMENT_THEORY = SGP/SGP4

EPOCH          = 2025-12-10T16:00:01.999584
MEAN_MOTION    = 15.96505755
ECCENTRICITY   = .00015818
INCLINATION    = 43.0016
RA_OF_ASC_NODE = 135.2202
ARG_OF_PERICENTER = 268.6575
MEAN_ANOMALY   = 252.4584

EPHEMERIS_TYPE = 0
CLASSIFICATION_TYPE = U
NORAD_CAT_ID   = 66860
ELEMENT_SET_NO = 999
REV_AT_EPOCH   = 246
BSTAR          = -.28282072E-2
MEAN_MOTION_DOT = -.1236658E-1
MEAN_MOTION_DDOT = .46592572E-3

